NORAD_CAT_ID,OBJECT_NAME,OBJECT_TYPE,EPOCH,MEAN_MOTION,ECCENTRICITY,INCLINATION,RA_OF_ASC_NODE,ARG_OF_PERICENTER,MEAN_ANOMALY,BSTAR,MEAN_MOTION_DOT,MEAN_MOTION_DDOT,TLE_LINE0,TLE_LINE1,TLE_LINE2,SEMIMAJOR_AXIS,PERIOD,APOGEE,PERIGEE,DECAYED
52587.0,STARLINK-3867,PAYLOAD,2024-02-15 19:51:18,15.08841528,0.0001692,53.2156,258.7087,87.216,272.9026,-9.7673e-05,-1.842e-05,0.0,0 STARLINK-3867,1 52587U 22051BD  24046.82729535 -.00001842  00000-0 -97673-4 0  9997,2 52587  53.2156 258.7087 0001692  87.2160 272.9026 15.08841528 98007,6917.876,95.437,540.911,538.57,0.0
52587.0,STARLINK-3867,PAYLOAD,2024-02-15 21:26:41,15.08843563,0.00014,53.2144,258.4116,87.4957,272.6196,-2.1657e-05,-6.33e-06,0.0,0 STARLINK-3867,1 52587U 22051BD  24046.89353486 -.00000633  00000-0 -21657-4 0  9998,2 52587  53.2144 258.4116 0001400  87.4957 272.6196 15.08843563 97945,6917.869,95.437,540.703,538.766,0.0
52587.0,STARLINK-3867,PAYLOAD,2024-02-16 13:20:32,15.08845437,0.0001661,53.2154,255.4369,87.1483,272.97,0.00010807,1.433e-05,0.0,0 STARLINK-3867,1 52587U 22051BD  24047.55593408  .00001433  00000-0  10807-3 0  9993,2 52587  53.2154 255.4369 0001661  87.1483 272.9700 15.08845437 98041,6917.864,95.437,540.878,538.58,0.0
52587.0,STARLINK-3867,PAYLOAD,2024-02-16 21:17:28,15.08848259,0.0001516,53.2149,253.9506,86.1947,273.9218,0.00024163,3.561e-05,0.0,0 STARLINK-3867,1 52587U 22051BD  24047.88713272  .00003561  00000-0  24163-3 0  9996,2 52587  53.2149 253.9506 0001516  86.1947 273.9218 15.08848259 98099,6917.855,95.437,540.769,538.671,0.0
52587.0,STARLINK-3867,PAYLOAD,2024-02-16 22:52:51,15.08850156,0.0001541,53.215,253.6531,86.1548,273.962,0.00030008,4.492e-05,0.0,0 STARLINK-3867,1 52587U 22051BD  24047.95337215  .00004492  00000-0  30008-3 0  9992,2 52587  53.2150 253.6531 0001541  86.1548 273.9620 15.08850156 98176,6917.849,95.437,540.78,538.648,0.0
52587.0,STARLINK-3867,PAYLOAD,2024-02-17 06:49:47,15.08841545,0.0001499,53.2145,252.166,85.7945,274.3218,0.00014772,2.064e-05,0.0,0 STARLINK-3867,1 52587U 22051BD  24048.28457433  .00002064  00000-0  14772-3 0  9997,2 52587  53.2145 252.1660 0001499  85.7945 274.3218 15.08841545 98221,6917.876,95.437,540.778,538.704,0.0
52587.0,STARLINK-3867,PAYLOAD,2024-02-17 19:32:52,15.08838374,0.0001464,53.2141,249.786,89.5301,270.5859,7.9964e-05,9.85e-06,0.0,0 STARLINK-3867,1 52587U 22051BD  24048.81449663  .00000985  00000-0  79964-4 0  9997,2 52587  53.2141 249.7860 0001464  89.5301 270.5859 15.08838374 98237,6917.885,95.438,540.763,538.738,0.0
52587.0,STARLINK-3867,PAYLOAD,2024-02-18 06:40:34,15.0884071,0.000137,53.2142,247.704,93.4598,266.6551,9.911e-05,1.29e-05,0.0,0 STARLINK-3867,1 52587U 22051BD  24049.27817689  .00001290  00000-0  99110-4 0  9990,2 52587  53.2142 247.7040 0001370  93.4598 266.6551 15.08840710 98371,6917.878,95.438,540.691,538.795,0.0
52587.0,STARLINK-3867,PAYLOAD,2024-02-18 13:02:07,15.08837265,0.0001417,53.2141,246.5157,89.8911,270.2243,0.00021009,3.057e-05,0.0,0 STARLINK-3867,1 52587U 22051BD  24049.54313931  .00003057  00000-0  21009-3 0  9995,2 52587  53.2141 246.5157 0001417  89.8911 270.2243 15.08837265 98343,6917.889,95.438,540.734,538.773,0.0
52587.0,STARLINK-3867,PAYLOAD,2024-02-18 19:23:39,15.08839486,0.000139,53.2139,245.3254,91.9763,268.1388,0.00022123,3.235e-05,0.0,0 STARLINK-3867,1 52587U 22051BD  24049.80809813  .00003235  00000-0  22123-3 0  9999,2 52587  53.2139 245.3254 0001390  91.9763 268.1388 15.08839486 98381,6917.882,95.438,540.709,538.785,0.0
52587.0,STARLINK-3867,PAYLOAD,2024-02-19 06:31:21,15.08843863,0.0001365,53.2151,243.2436,93.3595,266.7554,8.0324e-05,9.91e-06,0.0,0 STARLINK-3867,1 52587U 22051BD  24050.27177408  .00000991  00000-0  80324-4 0  9994,2 52587  53.2151 243.2436 0001365  93.3595 266.7554 15.08843863 98456,6917.869,95.437,540.678,538.789,0.0
52587.0,STARLINK-3867,PAYLOAD,2024-02-19 19:14:26,15.08839342,0.0001375,53.2151,240.8648,93.7283,266.3866,9.8654e-05,1.282e-05,0.0,0 STARLINK-3867,1 52587U 22051BD  24050.80169717  .00001282  00000-0  98654-4 0  9996,2 52587  53.2151 240.8648 0001375  93.7283 266.3866 15.08839342 98609,6917.882,95.438,540.699,538.796,0.0
52587.0,STARLINK-3867,PAYLOAD,2024-02-19 22:25:12,15.08841132,0.0001402,53.2154,240.2699,94.6524,265.4629,0.0001026,1.345e-05,0.0,0 STARLINK-3867,1 52587U 22051BD  24050.93417521  .00001345  00000-0  10260-3 0  9995,2 52587  53.2154 240.2699 0001402  94.6524 265.4629 15.08841132 98552,6917.877,95.437,540.712,538.772,0.0
52587.0,STARLINK-3867,PAYLOAD,2024-02-20 19:05:13,15.08842067,0.0001317,53.2156,236.4042,89.7363,270.378,5.8021e-05,6.36e-06,0.0,0 STARLINK-3867,1 52587U 22051BD  24051.79529620  .00000636  00000-0  58021-4 0  9994,2 52587  53.2156 236.4042 0001317  89.7363 270.3780 15.08842067 98689,6917.874,95.437,540.65,538.828,0.0
52587.0,STARLINK-3867,PAYLOAD,2024-02-21 04:37:32,15.08840424,0.0001354,53.2157,234.6199,89.5689,270.5458,5.3499e-05,5.64e-06,0.0,0 STARLINK-3867,1 52587U 22051BD  24052.19273704  .00000564  00000-0  53499-4 0  9992,2 52587  53.2157 234.6199 0001354  89.5689 270.5458 15.08840424 98817,6917.879,95.438,540.681,538.807,0.0
52587.0,STARLINK-3867,PAYLOAD,2024-02-21 18:56:00,15.08840417,0.0001317,53.2161,231.9446,89.3448,270.7695,7.643e-05,9.29e-06,0.0,0 STARLINK-3867,1 52587U 22051BD  24052.78889639  .00000929  00000-0  76430-4 0  9992,2 52587  53.2161 231.9446 0001317  89.3448 270.7695 15.08840417 98836,6917.879,95.438,540.655,538.833,0.0
52587.0,STARLINK-3867,PAYLOAD,2024-02-22 12:25:15,15.08836833,0.0001278,53.2158,228.6745,88.6209,271.493,2.8961e-05,1.73e-06,0.0,0 STARLINK-3867,1 52587U 22051BD  24053.51754105  .00000173  00000-0  28961-4 0  9990,2 52587  53.2158 228.6745 0001278  88.6209 271.4930 15.08836833 99018,6917.89,95.438,540.639,538.871,0.0
52587.0,STARLINK-3867,PAYLOAD,2024-02-22 17:11:24,15.08839009,0.0001261,53.2158,227.7825,88.7112,271.4025,4.1179e-05,3.68e-06,0.0,0 STARLINK-3867,1 52587U 22051BD  24053.71625931  .00000368  00000-0  41179-4 0  9998,2 52587  53.2158 227.7825 0001261  88.7112 271.4025 15.08839009 98970,6917.883,95.438,540.621,538.876,0.0
52587.0,STARLINK-3867,PAYLOAD,2024-02-23 20:12:58,15.08841459,0.0001179,53.2154,222.7267,86.8852,273.2275,6.1664e-05,6.94e-06,0.0,0 STARLINK-3867,1 52587U 22051BD  24054.84233869  .00000694  00000-0  61664-4 0  9991,2 52587  53.2154 222.7267 0001179  86.8852 273.2275 15.08841459 99216,6917.876,95.437,540.557,538.925,0.0
52587.0,STARLINK-3867,PAYLOAD,2024-02-24 12:06:50,15.0883786,0.0001239,53.2161,219.7475,84.2171,275.8962,-5.5527e-05,-1.171e-05,0.0,0 STARLINK-3867,1 52587U 22051BD  24055.50474722 -.00001171  00000-0 -55527-4 0  9994,2 52587  53.2161 219.7475 0001239  84.2171 275.8962 15.08837860 99317,6917.887,95.438,540.609,538.895,0.0
52587.0,STARLINK-3867,PAYLOAD,2024-02-25 10:22:13,15.08842915,0.0001226,53.2163,215.587,97.7174,262.3957,6.5572e-05,7.56e-06,0.0,0 STARLINK-3867,1 52587U 22051BD  24056.43210217  .00000756  00000-0  65572-4 0  9991,2 52587  53.2163 215.5870 0001226  97.7174 262.3957 15.08842915 99457,6917.871,95.437,540.585,538.888,0.0
52587.0,STARLINK-3867,PAYLOAD,2024-02-25 16:43:45,15.0885131,0.0001001,53.215,214.3998,83.9611,276.1495,0.0001397,1.937e-05,0.0,0 STARLINK-3867,1 52587U 22051BD  24056.69705434  .00001937  00000-0  13970-3 0  9995,2 52587  53.2150 214.3998 0001001  83.9611 276.1495 15.08851310 99498,6917.846,95.437,540.403,539.018,0.0
52587.0,STARLINK-3867,PAYLOAD,2024-02-26 13:23:46,15.08842849,0.0001502,53.2178,210.533,97.5449,262.5714,8.0123e-05,9.88e-06,0.0,0 STARLINK-3867,1 52587U 22051BD  24057.55818143  .00000988  00000-0  80123-4 0  9993,2 52587  53.2178 210.5330 0001502  97.5449 262.5714 15.08842849 99559,6917.872,95.437,540.776,538.698,0.0
52587.0,STARLINK-3867,PAYLOAD,2024-02-26 16:34:33,15.08842662,0.0001492,53.2162,209.9394,98.4386,261.6775,-8.1162e-06,-4.17e-06,0.0,0 STARLINK-3867,1 52587U 22051BD  24057.69066268 -.00000417  00000-0 -81162-5 0  9995,2 52587  53.2162 209.9394 0001492  98.4386 261.6775 15.08842662 99642,6917.872,95.437,540.769,538.705,0.0
52587.0,STARLINK-3867,PAYLOAD,2024-02-27 10:03:48,15.08828721,0.0001428,53.216,206.6687,96.1406,263.9749,0.00013503,1.861e-05,0.0,0 STARLINK-3867,1 52587U 22051BD  24058.41930782  .00001861  00000-0  13503-3 0  9991,2 52587  53.2160 206.6687 0001428  96.1406 263.9749 15.08828721 99754,6917.915,95.438,540.768,538.792,0.0
52587.0,STARLINK-3867,PAYLOAD,2024-02-27 14:49:58,15.08816956,0.0001422,53.2163,205.7763,98.8506,261.2647,0.00029245,4.367e-05,0.0,0 STARLINK-3867,1 52587U 22051BD  24058.61803261  .00004367  00000-0  29245-3 0  9998,2 52587  53.2163 205.7763 0001422  98.8506 261.2647 15.08816956 99717,6917.951,95.439,540.8,538.832,0.0
52587.0,STARLINK-3867,PAYLOAD,2024-02-27 19:36:06,15.08847544,0.0001733,53.2173,204.8836,100.6868,259.432,-7.642e-05,-1.504e-05,0.0,0 STARLINK-3867,1 52587U 22051BD  24058.81674113 -.00001504  00000-0 -76420-4 0  9992,2 52587  53.2173 204.8836 0001733 100.6868 259.4320 15.08847544 99812,6917.857,95.437,540.921,538.523,0.0
52587.0,STARLINK-3867,PAYLOAD,2024-02-28 13:05:21,15.08830712,0.0001523,53.2162,201.6118,91.2648,268.8519,2.7586e-05,1.51e-06,0.0,0 STARLINK-3867,1 52587U 22051BD  24059.54538997  .00000151  00000-0  27586-4 0  9996,2 52587  53.2162 201.6118 0001523  91.2648 268.8519 15.08830712 99921,6917.909,95.438,540.827,538.72,0.0
52587.0,STARLINK-3867,PAYLOAD,2024-02-28 14:40:44,15.08830514,0.0001518,53.2163,201.3144,91.0337,269.083,2.586e-05,1.24e-06,0.0,0 STARLINK-3867,1 52587U 22051BD  24059.61163052  .00000124  00000-0  25860-4 0  9993,2 52587  53.2163 201.3144 0001518  91.0337 269.0830 15.08830514 99867,6917.909,95.438,540.825,538.724,0.0
52587.0,STARLINK-3867,PAYLOAD,2024-02-28 19:26:53,15.08837352,0.0001296,53.2152,200.4208,85.9779,274.1361,7.4053e-05,8.91e-06,0.0,0 STARLINK-3867,1 52587U 22051BD  24059.81034527  .00000891  00000-0  74053-4 0  9998,2 52587  53.2152 200.4208 0001296  85.9779 274.1361 15.08837352 99897,6917.888,95.438,540.65,538.857,0.0
